NORAD_CAT_ID,OBJECT_NAME,OBJECT_TYPE,EPOCH,MEAN_MOTION,ECCENTRICITY,INCLINATION,RA_OF_ASC_NODE,ARG_OF_PERICENTER,MEAN_ANOMALY,BSTAR,MEAN_MOTION_DOT,MEAN_MOTION_DDOT,TLE_LINE0,TLE_LINE1,TLE_LINE2,SEMIMAJOR_AXIS,PERIOD,APOGEE,PERIGEE,DECAYED
53267.0,STARLINK-4060,PAYLOAD,2023-10-23 21:44:22,15.08846697,0.0001325,53.2158,129.7557,99.5861,260.5281,0.00072119,0.0001121,0.0,0 STARLINK-4060,1 53267U 22086AB  23296.90581479  .00011210  00000-0  72119-3 0  9994,2 53267  53.2158 129.7557 0001325  99.5861 260.5281 15.08846697 70065,6917.86,95.437,540.642,538.808,0.0
53267.0,STARLINK-4060,PAYLOAD,2023-10-24 04:05:54,15.08844724,0.0001339,53.2156,128.5661,99.4632,260.6511,0.00038831,5.898e-05,0.0,0 STARLINK-4060,1 53267U 22086AB  23297.17077420  .00005898  00000-0  38831-3 0  9998,2 53267  53.2156 128.5661 0001339  99.4632 260.6511 15.08844724 69925,6917.866,95.437,540.657,538.805,0.0
53267.0,STARLINK-4060,PAYLOAD,2023-10-24 13:38:13,15.08845515,0.0001324,53.2155,126.7819,99.5749,260.5392,0.00030715,4.604e-05,0.0,0 STARLINK-4060,1 53267U 22086AB  23297.56821365  .00004604  00000-0  30715-3 0  9993,2 53267  53.2155 126.7819 0001324  99.5749 260.5392 15.08845515 70166,6917.864,95.437,540.644,538.813,0.0
53267.0,STARLINK-4060,PAYLOAD,2023-10-25 11:53:38,15.08817402,0.0001242,53.2151,122.6187,104.958,255.1549,-0.0003252,-5.456e-05,0.0,0 STARLINK-4060,1 53267U 22086AB  23298.49558636 -.00005456  00000-0 -32520-3 0  9998,2 53267  53.2151 122.6187 0001242 104.9580 255.1549 15.08817402 70122,6917.949,95.439,540.674,538.955,0.0
53267.0,STARLINK-4060,PAYLOAD,2023-10-25 21:25:57,15.08820039,0.0001134,53.2151,120.8345,108.3973,251.7142,-9.0042e-05,-1.72e-05,0.0,0 STARLINK-4060,1 53267U 22086AB  23298.89303180 -.00001720  00000-0 -90042-4 0  9998,2 53267  53.2151 120.8345 0001134 108.3973 251.7142 15.08820039 70369,6917.941,95.439,540.591,539.022,0.0
53267.0,STARLINK-4060,PAYLOAD,2023-10-26 11:44:26,15.08839235,0.0001054,53.2152,118.158,109.8953,250.2152,0.00035247,5.326e-05,0.0,0 STARLINK-4060,1 53267U 22086AB  23299.48919156  .00005326  00000-0  35247-3 0  9999,2 53267  53.2152 118.1580 0001054 109.8953 250.2152 15.08839235 70279,6917.883,95.438,540.477,539.019,0.0
53267.0,STARLINK-4060,PAYLOAD,2023-10-26 13:19:49,15.08841601,0.0001173,53.2151,117.8606,110.2858,249.826,0.00040865,6.222e-05,0.0,0 STARLINK-4060,1 53267U 22086AB  23299.55543118  .00006222  00000-0  40865-3 0  9996,2 53267  53.2151 117.8606 0001173 110.2858 249.8260 15.08841601 70460,6917.875,95.437,540.552,538.929,0.0
53267.0,STARLINK-4060,PAYLOAD,2023-10-26 21:16:44,15.08848722,0.0001066,53.215,116.3738,108.3901,251.7207,0.00069845,0.00010848,0.0,0 STARLINK-4060,1 53267U 22086AB  23299.88663159  .00010848  00000-0  69845-3 0  9998,2 53267  53.2150 116.3738 0001066 108.3901 251.7207 15.08848722 70517,6917.854,95.437,540.456,538.981,0.0
53267.0,STARLINK-4060,PAYLOAD,2023-10-27 05:13:40,15.08859804,0.0001038,53.2149,114.8868,108.757,251.3534,0.00085375,0.00013333,0.0,0 STARLINK-4060,1 53267U 22086AB  23300.21782803  .00013333  00000-0  85375-3 0  9994,2 53267  53.2149 114.8868 0001038 108.7570 251.3534 15.08859804 70384,6917.82,95.436,540.403,538.967,0.0
53267.0,STARLINK-4060,PAYLOAD,2023-10-27 21:07:30,15.08882845,0.0001018,53.2148,111.913,111.232,248.8781,0.00080993,0.00012641,0.0,0 STARLINK-4060,1 53267U 22086AB  23300.88021123  .00012641  00000-0  80993-3 0  9990,2 53267  53.2148 111.9130 0001018 111.2320 248.8781 15.08882845 70660,6917.749,95.435,540.319,538.91,0.0
53267.0,STARLINK-4060,PAYLOAD,2023-10-28 11:25:58,15.08854298,0.0001899,53.2149,109.2359,87.5538,272.5672,4.3881e-05,4.11e-06,0.0,0 STARLINK-4060,1 53267U 22086AB  23301.47637129  .00000411  00000-0  43881-4 0  9993,2 53267  53.2149 109.2359 0001899  87.5538 272.5672 15.08854298 70571,6917.837,95.437,541.015,538.388,0.0
53267.0,STARLINK-4060,PAYLOAD,2023-10-28 17:47:31,15.08848155,0.0001038,53.2151,108.0468,102.0949,258.0159,-0.00011808,-2.167e-05,0.0,0 STARLINK-4060,1 53267U 22086AB  23301.74133305 -.00002167  00000-0 -11808-3 0  9995,2 53267  53.2151 108.0468 0001038 102.0949 258.0159 15.08848155 70615,6917.855,95.437,540.439,539.002,0.0
53267.0,STARLINK-4060,PAYLOAD,2023-10-28 20:58:17,15.08851605,0.000109,53.2155,107.4523,100.0531,260.0584,-2.8558e-06,-3.33e-06,0.0,0 STARLINK-4060,1 53267U 22086AB  23301.87381163 -.00000333  00000-0 -28558-5 0  9991,2 53267  53.2155 107.4523 0001090 100.0531 260.0584 15.08851605 70818,6917.845,95.437,540.464,538.956,0.0
53267.0,STARLINK-4060,PAYLOAD,2023-10-29 14:27:31,15.08855076,0.0001059,53.2152,104.1802,97.4267,262.6846,0.00028072,4.184e-05,0.0,0 STARLINK-4060,1 53267U 22086AB  23302.60244773  .00004184  00000-0  28072-3 0  9993,2 53267  53.2152 104.1802 0001059  97.4267 262.6846 15.08855076 70926,6917.834,95.437,540.432,538.967,0.0
53267.0,STARLINK-4060,PAYLOAD,2023-10-29 20:49:03,15.08860523,9.77e-05,53.2152,102.9911,85.5142,274.5962,0.00071882,0.00011177,0.0,0 STARLINK-4060,1 53267U 22086AB  23302.86740641  .00011177  00000-0  71882-3 0  9993,2 53267  53.2152 102.9911 0000977  85.5142 274.5962 15.08860523 70789,6917.818,95.436,540.359,539.007,0.0
53267.0,STARLINK-4060,PAYLOAD,2023-10-31 03:01:23,15.08842088,9.45e-05,53.2166,97.3408,77.7018,282.408,0.00017818,2.549e-05,0.0,0 STARLINK-4060,1 53267U 22086AB  23304.12597026  .00002549  00000-0  17818-3 0  9993,2 53267  53.2166  97.3408 0000945  77.7018 282.4080 15.08842088 70978,6917.874,95.437,540.393,539.085,0.0
53267.0,STARLINK-4060,PAYLOAD,2023-10-31 14:09:06,15.08835786,0.0001173,53.2165,95.2601,84.5736,275.539,-1.3604e-06,-3.09e-06,0.0,0 STARLINK-4060,1 53267U 22086AB  23304.58965394 -.00000309  00000-0 -13604-5 0  9995,2 53267  53.2165  95.2601 0001173  84.5736 275.5390 15.08835786 71229,6917.893,95.438,540.57,538.947,0.0
53267.0,STARLINK-4060,PAYLOAD,2023-10-31 17:19:52,15.08839333,0.0001091,53.2173,94.6663,86.4538,273.6578,7.9911e-06,-1.61e-06,0.0,0 STARLINK-4060,1 53267U 22086AB  23304.72212981 -.00000161  00000-0  79911-5 0  9996,2 53267  53.2173  94.6663 0001091  86.4538 273.6578 15.08839333 71240,6917.882,95.438,540.502,538.993,0.0
53267.0,STARLINK-4060,PAYLOAD,2023-11-01 02:52:11,15.08835057,0.0001049,53.2177,92.8827,84.8479,275.2633,3.205e-05,2.22e-06,0.0,0 STARLINK-4060,1 53267U 22086AB  23305.11957356  .00000222  00000-0  32050-4 0  9991,2 53267  53.2177  92.8827 0001049  84.8479 275.2633 15.08835057 71121,6917.895,95.438,540.486,539.035,0.0
53267.0,STARLINK-4060,PAYLOAD,2023-11-01 13:59:54,15.08807282,9.08e-05,53.2177,90.8015,96.7902,263.3193,0.0012943,0.00020352,0.0,0 STARLINK-4060,1 53267U 22086AB  23305.58327088  .00020352  00000-0  12943-2 0  9998,2 53267  53.2177  90.8015 0000908  96.7902 263.3193 15.08807282 71379,6917.98,95.44,540.474,539.217,0.0
53267.0,STARLINK-4060,PAYLOAD,2023-11-01 20:21:25,15.0884377,0.0001064,53.2173,89.6108,78.8314,281.2797,0.00026233,3.89e-05,0.0,0 STARLINK-4060,1 53267U 22086AB  23305.84821513  .00003890  00000-0  26233-3 0  9995,2 53267  53.2173  89.6108 0001064  78.8314 281.2797 15.08843770 71412,6917.869,95.437,540.47,538.998,0.0
53267.0,STARLINK-4060,PAYLOAD,2023-11-02 13:50:40,15.0884368,0.0001268,53.2175,86.3396,85.2086,274.9051,0.00020834,3.03e-05,0.0,0 STARLINK-4060,1 53267U 22086AB  23306.57685681  .00003030  00000-0  20834-3 0  9997,2 53267  53.2175  86.3396 0001268  85.2086 274.9051 15.08843680 71525,6917.869,95.437,540.611,538.857,0.0
53267.0,STARLINK-4060,PAYLOAD,2023-11-02 18:36:49,15.08848152,0.0001177,53.2177,85.4466,83.6805,276.4321,0.00023565,3.465e-05,0.0,0 STARLINK-4060,1 53267U 22086AB  23306.77557424  .00003465  00000-0  23565-3 0  9998,2 53267  53.2177  85.4466 0001177  83.6805 276.4321 15.08848152 71374,6917.855,95.437,540.535,538.906,0.0
53267.0,STARLINK-4060,PAYLOAD,2023-11-03 08:55:18,15.08839772,0.0001212,53.2162,82.7722,87.4412,272.6719,7.0738e-05,8.38e-06,0.0,0 STARLINK-4060,1 53267U 22086AB  23307.37173808  .00000838  00000-0  70738-4 0  9991,2 53267  53.2162  82.7722 0001212  87.4412 272.6719 15.08839772 71466,6917.881,95.438,540.585,538.908,0.0
53267.0,STARLINK-4060,PAYLOAD,2023-11-03 13:41:27,15.08839785,0.0001156,53.2163,81.8802,92.608,267.5045,7.1165e-05,8.45e-06,0.0,0 STARLINK-4060,1 53267U 22086AB  23307.57045784  .00000845  00000-0  71165-4 0  9997,2 53267  53.2163  81.8802 0001156  92.6080 267.5045 15.08839785 71674,6917.881,95.438,540.546,538.946,0.0
53267.0,STARLINK-4060,PAYLOAD,2023-11-03 16:52:13,15.08844334,0.0001246,53.2177,81.2855,90.9493,269.1641,0.00014027,1.945e-05,0.0,0 STARLINK-4060,1 53267U 22086AB  23307.70293669  .00001945  00000-0  14027-3 0  9994,2 53267  53.2177  81.2855 0001246  90.9493 269.1641 15.08844334 71698,6917.867,95.437,540.594,538.87,0.0
53267.0,STARLINK-4060,PAYLOAD,2023-11-04 15:07:37,15.08839801,0.0001061,53.2165,77.1234,87.8289,272.2824,9.2558e-05,1.186e-05,0.0,0 STARLINK-4060,1 53267U 22086AB  23308.63030082  .00001186  00000-0  92558-4 0  9998,2 53267  53.2165  77.1234 0001061  87.8289 272.2824 15.08839801 71830,6917.881,95.438,540.48,539.012,0.0
53267.0,STARLINK-4060,PAYLOAD,2023-11-05 02:15:19,15.08851164,0.0001152,53.2164,75.0408,90.1011,270.0113,0.00017069,2.431e-05,0.0,0 STARLINK-4060,1 53267U 22086AB  23309.09397458  .00002431  00000-0  17069-3 0  9999,2 53267  53.2164  75.0408 0001152  90.1011 270.0113 15.08851164 71721,6917.846,95.437,540.508,538.914,0.0
53267.0,STARLINK-4060,PAYLOAD,2023-11-05 14:58:24,15.08858082,0.0001204,53.2169,72.6602,96.9,263.2129,0.00047538,7.29e-05,0.0,0 STARLINK-4060,1 53267U 22086AB  23309.62389337  .00007290  00000-0  47538-3 0  9997,2 53267  53.2169  72.6602 0001204  96.9000 263.2129 15.08858082 71980,6917.825,95.436,540.523,538.857,0.0
53267.0,STARLINK-4060,PAYLOAD,2023-11-06 11:38:25,15.0879697,0.0001515,53.2164,68.7955,33.8255,326.2834,-0.0016159,-0.00025883,0.0,0 STARLINK-4060,1 53267U 22086AB  23310.48501400 -.00025883  00000-0 -16159-2 0  9994,2 53267  53.2164  68.7955 0001515  33.8255 326.2834 15.08796970 71934,6918.012,95.44,540.925,538.829,0.0
